ORBCOMM FM33            
1 25983U 99065D   25245.51429198  .00002009  00000+0  67457-3 0  9995
2 25983  45.0304 351.2816 0007486 103.4642 256.7042 14.40142986347218
ORBCOMM FM36            
1 25984U 99065E   25244.74632085  .00002397  00000+0  82702-3 0  9991
2 25984  45.0390  88.0384 0002808 341.7041  18.3706 14.38287670345441
ORBCOMM FM35            
1 25985U 99065F   25245.26782419  .00002202  00000+0  77946-3 0  9996
2 25985  45.0391  91.2151 0004339  63.7906 296.3388 14.37244702345872
ORBCOMM FM34            
1 25986U 99065G   25245.30248682  .00001945  00000+0  69411-3 0  9992
2 25986  45.0385  91.5071 0004265  18.1276 341.9724 14.37248988345996
ORBCOMM FM38            
1 33060U 08031A   25245.57441000  .00003802  00000+0  50547-3 0  9999
2 33060  48.4404 306.3811 0004867   3.7855 356.3097 14.81594510926225
ORBCOMM FM41            
1 33061U 08031B   25245.54989333  .00003734  00000+0  50188-3 0  9998
2 33061  48.4443 314.5456 0004276 346.4500 108.3143 14.81169822925706
ORBCOMM FM29            
1 33062U 08031C   25245.51340319  .00003914  00000+0  52336-3 0  9998
2 33062  48.4394 322.4323 0005897 348.7204  24.9271 14.81281672925612
ORBCOMM FM39            
1 33063U 08031D   25245.55055357  .00003611  00000+0  50204-3 0  9994
2 33063  48.4413 347.3832 0007070 322.3391  37.7028 14.79803254925251
